SL-4 R/B                
1 39679U 14021B   26049.40593810  .00013071  00000+0  29548-3 0  9995
2 39679  51.6060  71.3036 0098825  32.6899 328.0149 15.38504324653302
ALOS-2                  
1 39766U 14029A   26049.84932689  .00000535  00000+0  78531-4 0  9997
2 39766  97.9212 148.7180 0001537 102.1081 258.0302 14.79464799634082
YAOGAN-29               
1 41038U 15069A   26049.90212956  .00000666  00000+0  88706-4 0  9992
2 41038  98.0161  78.2791 0002757  68.1284 292.0222 14.82973615553094
ASTRO-H (HITOMI)        
1 41337U 16012A   26049.52947932  .00003094  00000+0  18067-3 0  9990
2 41337  30.9990 120.1779 0009834 140.3719 219.7639 15.09859757549333
HXMT (HUIYAN)           
1 42758U 17034A   26049.68740421  .00005480  00000+0  27923-3 0  9996
2 42758  43.0143 122.2969 0030621 115.5696 244.8322 15.17214273479658
CZ-2C R/B               
1 43521U 18054D   26049.48922216  .00666981  21450-3  87656-3 0  9994
2 43521  35.1266  73.7070 0011389 125.5606 234.6199 16.05683564425819
SAOCOM 1A               
1 43641U 18076A   26049.85755250  .00000292  00000+0  43273-4 0  9993
2 43641  97.8869 238.2964 0001312  79.0866 281.0494 14.82145619398575
H-2A R/B                
1 43682U 18084L   26049.64104913  .00018000  00000+0  44089-3 0  9999
2 43682  98.8743 262.9704 0026351  89.2735 271.1525 15.40481732402841
SAOCOM 1B               
1 46265U 20059A   26049.88880752  .00001224  00000+0  16031-3 0  9998
2 46265  97.8868 237.4254 0001510  84.5340 275.6045 14.82153295295969
CSS (TIANHE)            
1 48274U 21035A   26049.89676066  .00023061  00000+0  28199-3 0  9998
2 48274  41.4677 322.4399 0004426 139.3790 220.7380 15.59851583274674
COSMOS 2550             
1 48865U 21056A   26049.86796457 -.00000065  00000+0  38401-5 0  9990
2 48865  67.1419  97.8655 0008368 269.6704  90.3492 15.33829449260575
CZ-2C R/B               
1 52794U 22058K   26049.02237349  .00029094  00000+0  44943-3 0  9995
2 52794  50.1886  59.3450 0042099 117.1440 243.3832 15.52802963207077
