CCSDS_OMM_VERS = 2.0
CREATION_DATE  = 
ORIGINATOR     = 

OBJECT_NAME    = SL-4 R/B
OBJECT_ID      = 2014-021B
CENTER_NAME    = EARTH
REF_FRAME      = TEME
TIME_SYSTEM    = UTC
MEAN_ELEMENT_THEORY = SGP/SGP4

EPOCH          = 2026-02-18T09:44:33.051840
MEAN_MOTION    = 15.38504324
ECCENTRICITY   = .0098825
INCLINATION    = 51.6060
RA_OF_ASC_NODE = 71.3036
ARG_OF_PERICENTER = 32.6899
MEAN_ANOMALY   = 328.0149

EPHEMERIS_TYPE = 0
CLASSIFICATION_TYPE = U
NORAD_CAT_ID   = 39679
ELEMENT_SET_NO = 999
REV_AT_EPOCH   = 65330
BSTAR          = .29548E-3
MEAN_MOTION_DOT = .13071E-3
MEAN_MOTION_DDOT = 0

CCSDS_OMM_VERS = 2.0
CREATION_DATE  = 
ORIGINATOR     = 

OBJECT_NAME    = ALOS-2
OBJECT_ID      = 2014-029A
CENTER_NAME    = EARTH
REF_FRAME      = TEME
TIME_SYSTEM    = UTC
MEAN_ELEMENT_THEORY = SGP/SGP4

EPOCH          = 2026-02-18T20:23:01.843296
MEAN_MOTION    = 14.79464799
ECCENTRICITY   = .0001537
INCLINATION    = 97.9212
RA_OF_ASC_NODE = 148.7180
ARG_OF_PERICENTER = 102.1081
MEAN_ANOMALY   = 258.0302

EPHEMERIS_TYPE = 0
CLASSIFICATION_TYPE = U
NORAD_CAT_ID   = 39766
ELEMENT_SET_NO = 999
REV_AT_EPOCH   = 63408
BSTAR          = .78531E-4
MEAN_MOTION_DOT = .535E-5
MEAN_MOTION_DDOT = 0

CCSDS_OMM_VERS = 2.0
CREATION_DATE  = 
ORIGINATOR     = 

OBJECT_NAME    = YAOGAN-29
OBJECT_ID      = 2015-069A
CENTER_NAME    = EARTH
REF_FRAME      = TEME
TIME_SYSTEM    = UTC
MEAN_ELEMENT_THEORY = SGP/SGP4

EPOCH          = 2026-02-18T21:39:03.993984
MEAN_MOTION    = 14.82973615
ECCENTRICITY   = .0002757
INCLINATION    = 98.0161
RA_OF_ASC_NODE = 78.2791
ARG_OF_PERICENTER = 68.1284
MEAN_ANOMALY   = 292.0222

EPHEMERIS_TYPE = 0
CLASSIFICATION_TYPE = U
NORAD_CAT_ID   = 41038
ELEMENT_SET_NO = 999
REV_AT_EPOCH   = 55309
BSTAR          = .88706E-4
MEAN_MOTION_DOT = .666E-5
MEAN_MOTION_DDOT = 0

CCSDS_OMM_VERS = 2.0
CREATION_DATE  = 
ORIGINATOR     = 

OBJECT_NAME    = ASTRO-H (HITOMI)
OBJECT_ID      = 2016-012A
CENTER_NAME    = EARTH
REF_FRAME      = TEME
TIME_SYSTEM    = UTC
MEAN_ELEMENT_THEORY = SGP/SGP4

EPOCH          = 2026-02-18T12:42:27.013248
MEAN_MOTION    = 15.09859757
ECCENTRICITY   = .0009834
INCLINATION    = 30.9990
RA_OF_ASC_NODE = 120.1779
ARG_OF_PERICENTER = 140.3719
MEAN_ANOMALY   = 219.7639

EPHEMERIS_TYPE = 0
CLASSIFICATION_TYPE = U
NORAD_CAT_ID   = 41337
ELEMENT_SET_NO = 999
REV_AT_EPOCH   = 54933
BSTAR          = .18067E-3
MEAN_MOTION_DOT = .3094E-4
MEAN_MOTION_DDOT = 0

CCSDS_OMM_VERS = 2.0
CREATION_DATE  = 
ORIGINATOR     = 

OBJECT_NAME    = HXMT (HUIYAN)
OBJECT_ID      = 2017-034A
CENTER_NAME    = EARTH
REF_FRAME      = TEME
TIME_SYSTEM    = UTC
MEAN_ELEMENT_THEORY = SGP/SGP4

EPOCH          = 2026-02-18T16:29:51.723744
MEAN_MOTION    = 15.17214273
ECCENTRICITY   = .0030621
INCLINATION    = 43.0143
RA_OF_ASC_NODE = 122.2969
ARG_OF_PERICENTER = 115.5696
MEAN_ANOMALY   = 244.8322

EPHEMERIS_TYPE = 0
CLASSIFICATION_TYPE = U
NORAD_CAT_ID   = 42758
ELEMENT_SET_NO = 999
REV_AT_EPOCH   = 47965
BSTAR          = .27923E-3
MEAN_MOTION_DOT = .548E-4
MEAN_MOTION_DDOT = 0

CCSDS_OMM_VERS = 2.0
CREATION_DATE  = 
ORIGINATOR     = 

OBJECT_NAME    = CZ-2C R/B
OBJECT_ID      = 2018-054D
CENTER_NAME    = EARTH
REF_FRAME      = TEME
TIME_SYSTEM    = UTC
MEAN_ELEMENT_THEORY = SGP/SGP4

EPOCH          = 2026-02-18T11:44:28.794624
MEAN_MOTION    = 16.05683564
ECCENTRICITY   = .0011389
INCLINATION    = 35.1266
RA_OF_ASC_NODE = 73.7070
ARG_OF_PERICENTER = 125.5606
MEAN_ANOMALY   = 234.6199

EPHEMERIS_TYPE = 0
CLASSIFICATION_TYPE = U
NORAD_CAT_ID   = 43521
ELEMENT_SET_NO = 999
REV_AT_EPOCH   = 42581
BSTAR          = .87656E-3
MEAN_MOTION_DOT = .666981E-2
MEAN_MOTION_DDOT = .2145E-3

CCSDS_OMM_VERS = 2.0
CREATION_DATE  = 
ORIGINATOR     = 

OBJECT_NAME    = SAOCOM 1A
OBJECT_ID      = 2018-076A
CENTER_NAME    = EARTH
REF_FRAME      = TEME
TIME_SYSTEM    = UTC
MEAN_ELEMENT_THEORY = SGP/SGP4

EPOCH          = 2026-02-18T20:34:52.536000
MEAN_MOTION    = 14.82145619
ECCENTRICITY   = .0001312
INCLINATION    = 97.8869
RA_OF_ASC_NODE = 238.2964
ARG_OF_PERICENTER = 79.0866
MEAN_ANOMALY   = 281.0494

EPHEMERIS_TYPE = 0
CLASSIFICATION_TYPE = U
NORAD_CAT_ID   = 43641
ELEMENT_SET_NO = 999
REV_AT_EPOCH   = 39857
BSTAR          = .43273E-4
MEAN_MOTION_DOT = .292E-5
MEAN_MOTION_DDOT = 0

CCSDS_OMM_VERS = 2.0
CREATION_DATE  = 
ORIGINATOR     = 

OBJECT_NAME    = H-2A R/B
OBJECT_ID      = 2018-084L
CENTER_NAME    = EARTH
REF_FRAME      = TEME
TIME_SYSTEM    = UTC
MEAN_ELEMENT_THEORY = SGP/SGP4

EPOCH          = 2026-02-18T15:23:06.644832
MEAN_MOTION    = 15.40481732
ECCENTRICITY   = .0026351
INCLINATION    = 98.8743
RA_OF_ASC_NODE = 262.9704
ARG_OF_PERICENTER = 89.2735
MEAN_ANOMALY   = 271.1525

EPHEMERIS_TYPE = 0
CLASSIFICATION_TYPE = U
NORAD_CAT_ID   = 43682
ELEMENT_SET_NO = 999
REV_AT_EPOCH   = 40284
BSTAR          = .44089E-3
MEAN_MOTION_DOT = .18E-3
MEAN_MOTION_DDOT = 0

CCSDS_OMM_VERS = 2.0
CREATION_DATE  = 
ORIGINATOR     = 

OBJECT_NAME    = SAOCOM 1B
OBJECT_ID      = 2020-059A
CENTER_NAME    = EARTH
REF_FRAME      = TEME
TIME_SYSTEM    = UTC
MEAN_ELEMENT_THEORY = SGP/SGP4

EPOCH          = 2026-02-18T21:19:52.969728
MEAN_MOTION    = 14.82153295
ECCENTRICITY   = .000151
INCLINATION    = 97.8868
RA_OF_ASC_NODE = 237.4254
ARG_OF_PERICENTER = 84.5340
MEAN_ANOMALY   = 275.6045

EPHEMERIS_TYPE = 0
CLASSIFICATION_TYPE = U
NORAD_CAT_ID   = 46265
ELEMENT_SET_NO = 999
REV_AT_EPOCH   = 29596
BSTAR          = .16031E-3
MEAN_MOTION_DOT = .1224E-4
MEAN_MOTION_DDOT = 0

CCSDS_OMM_VERS = 2.0
CREATION_DATE  = 
ORIGINATOR     = 

OBJECT_NAME    = CSS (TIANHE)
OBJECT_ID      = 2021-035A
CENTER_NAME    = EARTH
REF_FRAME      = TEME
TIME_SYSTEM    = UTC
MEAN_ELEMENT_THEORY = SGP/SGP4

EPOCH          = 2026-02-18T21:31:20.121024
MEAN_MOTION    = 15.59851583
ECCENTRICITY   = .0004426
INCLINATION    = 41.4677
RA_OF_ASC_NODE = 322.4399
ARG_OF_PERICENTER = 139.3790
MEAN_ANOMALY   = 220.7380

EPHEMERIS_TYPE = 0
CLASSIFICATION_TYPE = U
NORAD_CAT_ID   = 48274
ELEMENT_SET_NO = 999
REV_AT_EPOCH   = 27467
BSTAR          = .28199E-3
MEAN_MOTION_DOT = .23061E-3
MEAN_MOTION_DDOT = 0

CCSDS_OMM_VERS = 2.0
CREATION_DATE  = 
ORIGINATOR     = 

OBJECT_NAME    = COSMOS 2550
OBJECT_ID      = 2021-056A
CENTER_NAME    = EARTH
REF_FRAME      = TEME
TIME_SYSTEM    = UTC
MEAN_ELEMENT_THEORY = SGP/SGP4

EPOCH          = 2026-02-18T20:49:52.138848
MEAN_MOTION    = 15.33829449
ECCENTRICITY   = .0008368
INCLINATION    = 67.1419
RA_OF_ASC_NODE = 97.8655
ARG_OF_PERICENTER = 269.6704
MEAN_ANOMALY   = 90.3492

EPHEMERIS_TYPE = 0
CLASSIFICATION_TYPE = U
NORAD_CAT_ID   = 48865
ELEMENT_SET_NO = 999
REV_AT_EPOCH   = 26057
BSTAR          = .38401E-5
MEAN_MOTION_DOT = -.65E-6
MEAN_MOTION_DDOT = 0

CCSDS_OMM_VERS = 2.0
CREATION_DATE  = 
ORIGINATOR     = 

OBJECT_NAME    = CZ-2C R/B
OBJECT_ID      = 2022-058K
CENTER_NAME    = EARTH
REF_FRAME      = TEME
TIME_SYSTEM    = UTC
MEAN_ELEMENT_THEORY = SGP/SGP4

EPOCH          = 2026-02-18T00:32:13.069536
MEAN_MOTION    = 15.52802963
ECCENTRICITY   = .00420996
INCLINATION    = 50.1886
RA_OF_ASC_NODE = 59.3450
ARG_OF_PERICENTER = 117.1440
MEAN_ANOMALY   = 243.3832

EPHEMERIS_TYPE = 0
CLASSIFICATION_TYPE = U
NORAD_CAT_ID   = 52794
ELEMENT_SET_NO = 999
REV_AT_EPOCH   = 20707
BSTAR          = .44942734E-3
MEAN_MOTION_DOT = .29094E-3
MEAN_MOTION_DDOT = 0

